OBJECT_NAME,OBJECT_ID,EPOCH,MEAN_MOTION,ECCENTRICITY,INCLINATION,RA_OF_ASC_NODE,ARG_OF_PERICENTER,MEAN_ANOMALY,EPHEMERIS_TYPE,CLASSIFICATION_TYPE,NORAD_CAT_ID,ELEMENT_SET_NO,REV_AT_EPOCH,BSTAR,MEAN_MOTION_DOT,MEAN_MOTION_DDOT
BEIDOU-3 M28,2023-207A,2026-07-11T23:59:06.940896,1.86229629,.00025144,55.7747,61.4661,3.1911,356.8781,0,U,58654,999,1730,0,-.44E-6,0
BEIDOU-3 M26,2023-207B,2026-07-12T20:53:57.178752,1.86229638,.000206,55.7779,61.4233,324.6713,35.3855,0,U,58655,999,1730,0,-.42E-6,0
TIANMU-1 19,2023-208A,2026-07-13T03:44:47.928192,15.31956904,.000438,97.4525,310.5976,206.0367,154.0655,0,U,58660,999,14130,.1695E-3,.5151E-4,0
TIANMU-1 20,2023-208B,2026-07-13T04:10:13.223424,15.33146082,.0006157,97.4466,311.2778,220.0913,139.9875,0,U,58661,999,14140,.16515E-3,.521E-4,0
TIANMU-1 21,2023-208C,2026-07-13T04:30:06.247584,15.35528911,.0006515,97.4526,314.0863,211.7748,148.3103,0,U,58662,999,14155,.17226E-3,.5868E-4,0
TIANMU-1 22,2023-208D,2026-07-13T03:31:33.068928,15.31410127,.000258,97.4521,310.5020,228.0098,132.0924,0,U,58663,999,14130,.1582E-3,.472E-4,0
STARLINK-31113,2023-211B,2026-07-13T03:17:19.613184,15.27583251,.0001517,43.0015,96.5204,265.7701,94.2978,0,U,58668,999,14165,.5769E-4,.1326E-4,0
STARLINK-31128,2023-211C,2026-07-12T02:34:53.257440,15.27571939,.00015217,42.9994,102.5438,232.9485,127.1228,0,U,58669,999,14149,.2356481E-5,-.197E-5,0
STARLINK-31083,2023-211D,2026-07-13T00:03:27.988992,15.27583693,.0001208,43.0026,97.2320,265.7096,94.3618,0,U,58670,999,14163,.1598E-4,.178E-5,0
STARLINK-30828,2023-211E,2026-07-13T02:22:01.270848,15.27582053,.0001081,43.0040,97.0888,266.4747,93.5981,0,U,58671,999,14164,.60251E-4,.1396E-4,0
STARLINK-31104,2023-211F,2026-07-12T01:13:57.150624,15.59343553,.00256569,42.9883,82.9256,229.4016,130.4615,0,U,58672,999,14299,.91969728E-3,.75994E-3,0
STARLINK-31131,2023-211G,2026-07-13T01:45:13.222080,15.27583570,.0001552,43.0060,86.3819,261.4970,98.5706,0,U,58673,999,14304,.13251E-4,.102E-5,0
STARLINK-31124,2023-211H,2026-07-13T00:14:33.593856,15.27589607,.0001513,43.0017,97.2865,256.2557,103.8126,0,U,58674,999,14163,.47895E-4,.1056E-4,0
STARLINK-31126,2023-211J,2026-07-12T23:52:21.666144,15.27584260,.0001145,43.0028,97.1656,269.3562,90.7158,0,U,58675,999,14163,.18506E-4,.247E-5,0
STARLINK-31066,2023-211K,2026-07-13T02:51:22.414752,15.27567324,.0000762,42.9994,242.6994,226.3805,133.6983,0,U,58676,999,14121,.37548E-4,.771E-5,0
STARLINK-31058,2023-211L,2026-07-13T03:26:36.983904,15.27566948,.0000829,42.9986,96.5653,261.0671,99.0087,0,U,58677,999,14165,-.34641E-4,-.1214E-4,0
STARLINK-31125,2023-211M,2026-07-13T02:25:43.123584,15.27583965,.0001486,43.0076,97.1051,261.2847,98.7837,0,U,58678,999,14281,.13268E-4,.103E-5,0
STARLINK-31110,2023-211N,2026-07-13T03:32:08.549952,15.27605421,.0001082,42.9943,96.6006,7.5072,352.5796,0,U,58679,999,14165,-.18658E-3,-.5397E-4,0
STARLINK-31112,2023-211P,2026-07-12T02:36:44.317728,15.27575304,.00007218,42.9944,102.5617,271.8002,88.2766,0,U,58680,999,14267,.11082465E-4,.43E-6,0
STARLINK-31147,2023-211Q,2026-07-12T17:06:20.469888,15.27551885,.0001978,43.0036,99.3645,309.6056,50.4621,0,U,58681,999,14158,.23549E-3,.6218E-4,0
STARLINK-31144,2023-211R,2026-07-12T23:56:03.374592,15.27576005,.0001371,43.0040,97.1859,261.5577,98.5119,0,U,58682,999,14163,.71104E-4,.1695E-4,0
STARLINK-31095,2023-211S,2026-07-12T23:41:27.053952,15.27597436,.0001227,43.0054,97.9729,258.7200,101.3514,0,U,58683,999,14289,.61894E-4,.1442E-4,0
STARLINK-31107,2023-211T,2026-07-13T02:59:01.874400,15.27586728,.0001599,43.0017,97.2795,249.0331,111.0349,0,U,58684,999,14164,.12546E-3,.3192E-4,0
STARLINK-31121,2023-211U,2026-07-13T03:09:55.919808,15.27578904,.0001429,43.0035,96.4754,270.8303,89.2384,0,U,58685,999,14165,.40679E-4,.857E-5,0
STARLINK-31137,2023-211V,2026-07-13T02:27:34.774848,15.27597493,.0001634,43.0007,97.1197,262.9347,97.1319,0,U,58686,999,14164,.4904E-3,.13264E-3,0
STARLINK-31106,2023-211Y,2026-07-13T02:16:33.767328,15.27616602,.0010297,42.9779,97.0864,52.5998,307.5789,0,U,58689,999,14164,.14505E-3,.3738E-4,0
HULIANWANG JISHU SHIYAN 4A,2023-212A,2026-07-13T03:39:30.566304,13.41458885,.0001235,49.9993,248.6139,211.8972,148.1831,0,U,58691,999,12473,.83376E-4,-.82E-6,0
HULIANWANG JISHU SHIYAN 4B,2023-212B,2026-07-13T03:29:50.925120,13.41460050,.0001406,49.9962,248.9965,201.8329,158.2489,0,U,58692,999,12473,.84176E-4,-.81E-6,0
HULIANWANG JISHU SHIYAN 4C,2023-212C,2026-07-13T03:34:31.567008,13.41461841,.0001262,49.9975,249.1113,190.9838,169.1011,0,U,58693,999,12474,.86655E-4,-.8E-6,0
XPOSAT,2024-001A,2026-07-09T20:20:06.983520,14.79335705,.00086381,5.9881,25.1227,85.4557,274.6557,0,U,58694,999,13638,.97712958E-4,.1398E-4,0
