BEIDOU-3 M28            
1 58654U 23207A   26192.99938589 -.00000044  00000+0  00000+0 0  9999
2 58654  55.7747  61.4661 0002514   3.1911 356.8781  1.86229629 17300
BEIDOU-3 M26            
1 58655U 23207B   26193.87080068 -.00000042  00000+0  00000+0 0  9996
2 58655  55.7779  61.4233 0002060 324.6713  35.3855  1.86229638 17309
TIANMU-1 19             
1 58660U 23208A   26194.15611028  .00005151  00000+0  16950-3 0  9991
2 58660  97.4525 310.5976 0004380 206.0367 154.0655 15.31956904141307
TIANMU-1 20             
1 58661U 23208B   26194.17376416  .00005210  00000+0  16515-3 0  9996
2 58661  97.4466 311.2778 0006157 220.0913 139.9875 15.33146082141404
TIANMU-1 21             
1 58662U 23208C   26194.18757231  .00005868  00000+0  17226-3 0  9995
2 58662  97.4526 314.0863 0006515 211.7748 148.3103 15.35528911141550
TIANMU-1 22             
1 58663U 23208D   26194.14691052  .00004720  00000+0  15820-3 0  9994
2 58663  97.4521 310.5020 0002580 228.0098 132.0924 15.31410127141308
STARLINK-31113          
1 58668U 23211B   26194.13703256  .00001326  00000+0  57690-4 0  9993
2 58668  43.0015  96.5204 0001517 265.7701  94.2978 15.27583251141651
STARLINK-31128          
1 58669U 23211C   26193.10756085 -.00000197  00000+0  23565-5 0  9999
2 58669  42.9994 102.5438 0001521 232.9485 127.1228 15.27571939141499
STARLINK-31083          
1 58670U 23211D   26194.00240728  .00000178  00000+0  15980-4 0  9992
2 58670  43.0026  97.2320 0001208 265.7096  94.3618 15.27583693141637
STARLINK-30828          
1 58671U 23211E   26194.09862582  .00001396  00000+0  60251-4 0  9994
2 58671  43.0040  97.0888 0001081 266.4747  93.5981 15.27582053141645
STARLINK-31104          
1 58672U 23211F   26193.05135591  .00075994  00000+0  91970-3 0  9999
2 58672  42.9883  82.9256 0025656 229.4016 130.4615 15.59343553142992
STARLINK-31131          
1 58673U 23211G   26194.07306970  .00000102  00000+0  13251-4 0  9990
2 58673  43.0060  86.3819 0001552 261.4970  98.5706 15.27583570143041
STARLINK-31124          
1 58674U 23211H   26194.01011104  .00001056  00000+0  47895-4 0  9997
2 58674  43.0017  97.2865 0001513 256.2557 103.8126 15.27589607141632
STARLINK-31126          
1 58675U 23211J   26193.99469521  .00000247  00000+0  18506-4 0  9992
2 58675  43.0028  97.1656 0001145 269.3562  90.7158 15.27584260141633
STARLINK-31066          
1 58676U 23211K   26194.11900943  .00000771  00000+0  37548-4 0  9995
2 58676  42.9994 242.6994 0000762 226.3805 133.6983 15.27567324141212
STARLINK-31058          
1 58677U 23211L   26194.14348361 -.00001214  00000+0 -34641-4 0  9995
2 58677  42.9986  96.5653 0000829 261.0671  99.0087 15.27566948141652
STARLINK-31125          
1 58678U 23211M   26194.10119356  .00000103  00000+0  13268-4 0  9998
2 58678  43.0076  97.1051 0001486 261.2847  98.7837 15.27583965142817
STARLINK-31110          
1 58679U 23211N   26194.14732118 -.00005397  00000+0 -18658-3 0  9999
2 58679  42.9943  96.6006 0001082   7.5072 352.5796 15.27605421141654
STARLINK-31112          
1 58680U 23211P   26193.10884627  .00000043  00000+0  11082-4 0  9995
2 58680  42.9944 102.5617 0000721 271.8002  88.2766 15.27575304142679
STARLINK-31147          
1 58681U 23211Q   26193.71273692  .00006218  00000+0  23549-3 0  9997
2 58681  43.0036  99.3645 0001978 309.6056  50.4621 15.27551885141580
STARLINK-31144          
1 58682U 23211R   26193.99726128  .00001695  00000+0  71104-4 0  9990
2 58682  43.0040  97.1859 0001371 261.5577  98.5119 15.27576005141632
STARLINK-31095          
1 58683U 23211S   26193.98711868  .00001442  00000+0  61894-4 0  9990
2 58683  43.0054  97.9729 0001227 258.7200 101.3514 15.27597436142895
STARLINK-31107          
1 58684U 23211T   26194.12432725  .00003192  00000+0  12546-3 0  9993
2 58684  43.0017  97.2795 0001599 249.0331 111.0349 15.27586728141649
STARLINK-31121          
1 58685U 23211U   26194.13189722  .00000857  00000+0  40679-4 0  9995
2 58685  43.0035  96.4754 0001429 270.8303  89.2384 15.27578904141652
STARLINK-31137          
1 58686U 23211V   26194.10248582  .00013264  00000+0  49040-3 0  9999
2 58686  43.0007  97.1197 0001634 262.9347  97.1319 15.27597493141648
STARLINK-31106          
1 58689U 23211Y   26194.09483527  .00003738  00000+0  14505-3 0  9993
2 58689  42.9779  97.0864 0010297  52.5998 307.5789 15.27616602141648
HULIANWANG JISHU SHIYAN*
1 58691U 23212A   26194.15243711 -.00000082  00000+0  83376-4 0  9996
2 58691  49.9993 248.6139 0001235 211.8972 148.1831 13.41458885124738
HULIANWANG JISHU SHIYAN*
1 58692U 23212B   26194.14572830 -.00000081  00000+0  84176-4 0  9991
2 58692  49.9962 248.9965 0001406 201.8329 158.2489 13.41460050124738
HULIANWANG JISHU SHIYAN*
1 58693U 23212C   26194.14897647 -.00000080  00000+0  86655-4 0  9991
2 58693  49.9975 249.1113 0001262 190.9838 169.1011 13.41461841124746
XPOSAT                  
1 58694U 24001A   26190.84730305  .00001398  00000+0  97713-4 0  9998
2 58694   5.9881  25.1227 0008638  85.4557 274.6557 14.79335705136384
